[{"OBJECT_NAME":"STARLINK-32705","OBJECT_ID":"2024-254T","EPOCH":"2026-03-09T04:28:47.211456","MEAN_MOTION":15.27607131,"ECCENTRICITY":0.00014023,"INCLINATION":43.0028,"RA_OF_ASC_NODE":11.6338,"ARG_OF_PERICENTER":251.0494,"MEAN_ANOMALY":109.0206,"EPHEMERIS_TYPE":0,"CLASSIFICATION_TYPE":"U","NORAD_CAT_ID":62479,"ELEMENT_SET_NO":999,"REV_AT_EPOCH":6750,"BSTAR":0.0010548736,"MEAN_MOTION_DOT":0.00028904,"MEAN_MOTION_DDOT":0},{"OBJECT_NAME":"FLOCK 4G-2","OBJECT_ID":"2025-009BE","EPOCH":"2026-03-09T15:53:23.273952","MEAN_MOTION":15.2767526,"ECCENTRICITY":0.00031811,"INCLINATION":97.4044,"RA_OF_ASC_NODE":151.2221,"ARG_OF_PERICENTER":329.2677,"MEAN_ANOMALY":30.8376,"EPHEMERIS_TYPE":0,"CLASSIFICATION_TYPE":"U","NORAD_CAT_ID":62661,"ELEMENT_SET_NO":999,"REV_AT_EPOCH":12132,"BSTAR":0.00051068481,"MEAN_MOTION_DOT":0.00013752,"MEAN_MOTION_DDOT":0}]
